{
  "type": "FeatureCollection",
  "features": [
    {
      "type": "Feature",
      "properties": {
        "norad_id": 30326,
        "name": "FENGYUN 1C DEB",
        "group": "fengyun-1c-debris",
        "lat": 40.90594903663292,
        "lon": 56.89912566814619,
        "alt_km": 946.9713202848798,
        "timestamp": "2025-12-07T14:37:05.480223+00:00",
        "meta_object_name": "FENGYUN 1C DEB",
        "meta_object_id": "1999-025AAM",
        "meta_epoch": "2025-12-06T22:22:00.619968",
        "meta_mean_motion": 13.85470786,
        "meta_eccentricity": 0.01425432,
        "meta_inclination": 98.6544,
        "meta_ra_of_asc_node": 228.6911,
        "meta_arg_of_pericenter": 46.3138,
        "meta_mean_anomaly": 314.9729,
        "meta_ephemeris_type": 0,
        "meta_classification_type": "U",
        "meta_norad_cat_id": 30326,
        "meta_element_set_no": 999,
        "meta_rev_at_epoch": 95375,
        "meta_bstar": 0.00030929191,
        "meta_mean_motion_dot": 3.43e-06,
        "meta_mean_motion_ddot": 0,
        "tle_line1": "1 30326U 99025AAM 25340.93195162  .00000343  00000+0  30929-3 0  9994",
        "tle_line2": "2 30326  98.6544 228.6911 0142543  46.3138 314.9729 13.85470786953758"
      },
      "geometry": {
        "type": "Point",
        "coordinates": [
          56.89912566814619,
          40.90594903663292
        ]
      }
    },
    {
      "type": "Feature",
      "properties": {
        "norad_id": 30327,
        "name": "FENGYUN 1C DEB",
        "group": "fengyun-1c-debris",
        "lat": 50.74011386804344,
        "lon": 66.63839712837739,
        "alt_km": 754.2322682644417,
        "timestamp": "2025-12-07T14:37:05.480234+00:00",
        "meta_object_name": "FENGYUN 1C DEB",
        "meta_object_id": "1999-025AAN",
        "meta_epoch": "2025-12-06T16:08:17.241792",
        "meta_mean_motion": 14.17923395,
        "meta_eccentricity": 0.01166185,
        "meta_inclination": 98.4438,
        "meta_ra_of_asc_node": 235.2761,
        "meta_arg_of_pericenter": 160.6443,
        "meta_mean_anomaly": 229.8658,
        "meta_ephemeris_type": 0,
        "meta_classification_type": "U",
        "meta_norad_cat_id": 30327,
        "meta_element_set_no": 999,
        "meta_rev_at_epoch": 96357,
        "meta_bstar": 0.0026407262,
        "meta_mean_motion_dot": 5.738e-05,
        "meta_mean_motion_ddot": 0,
        "tle_line1": "1 30327U 99025AAN 25340.67242178  .00005738  00000+0  26407-2 0  9994",
        "tle_line2": "2 30327  98.4438 235.2761 0116618 160.6443 229.8658 14.17923395963570"
      },
      "geometry": {
        "type": "Point",
        "coordinates": [
          66.63839712837739,
          50.74011386804344
        ]
      }
    },
    {
      "type": "Feature",
      "properties": {
        "norad_id": 30328,
        "name": "FENGYUN 1C DEB",
        "group": "fengyun-1c-debris",
        "lat": 25.057971441953672,
        "lon": -12.212059478962747,
        "alt_km": 853.1663443634152,
        "timestamp": "2025-12-07T14:37:05.480244+00:00",
        "meta_object_name": "FENGYUN 1C DEB",
        "meta_object_id": "1999-025AAP",
        "meta_epoch": "2025-12-06T18:57:41.666976",
        "meta_mean_motion": 14.12469305,
        "meta_eccentricity": 0.00054624,
        "meta_inclination": 98.6865,
        "meta_ra_of_asc_node": 351.0928,
        "meta_arg_of_pericenter": 168.2383,
        "meta_mean_anomaly": 14.9483,
        "meta_ephemeris_type": 0,
        "meta_classification_type": "U",
        "meta_norad_cat_id": 30328,
        "meta_element_set_no": 999,
        "meta_rev_at_epoch": 97180,
        "meta_bstar": 0.00024239235,
        "meta_mean_motion_dot": 4.05e-06,
        "meta_mean_motion_ddot": 0,
        "tle_line1": "1 30328U 99025AAP 25340.79006559  .00000405  00000+0  24239-3 0  9997",
        "tle_line2": "2 30328  98.6865 351.0928 0005462 168.2383  14.9483 14.12469305971805"
      },
      "geometry": {
        "type": "Point",
        "coordinates": [
          -12.212059478962747,
          25.057971441953672
        ]
      }
    },
    {
      "type": "Feature",
      "properties": {
        "norad_id": 30329,
        "name": "FENGYUN 1C DEB",
        "group": "fengyun-1c-debris",
        "lat": -13.76145311311613,
        "lon": 78.7418783204535,
        "alt_km": 1029.0500497977155,
        "timestamp": "2025-12-07T14:37:05.480280+00:00",
        "meta_object_name": "FENGYUN 1C DEB",
        "meta_object_id": "1999-025AAQ",
        "meta_epoch": "2025-12-06T17:11:44.641824",
        "meta_mean_motion": 13.86731364,
        "meta_eccentricity": 0.01423674,
        "meta_inclination": 99.2615,
        "meta_ra_of_asc_node": 260.1484,
        "meta_arg_of_pericenter": 51.5803,
        "meta_mean_anomaly": 7.6121,
        "meta_ephemeris_type": 0,
        "meta_classification_type": "U",
        "meta_norad_cat_id": 30329,
        "meta_element_set_no": 999,
        "meta_rev_at_epoch": 95327,
        "meta_bstar": 0.00073699035,
        "meta_mean_motion_dot": 8.86e-06,
        "meta_mean_motion_ddot": 0,
        "tle_line1": "1 30329U 99025AAQ 25340.71648891  .00000886  00000+0  73699-3 0  9998",
        "tle_line2": "2 30329  99.2615 260.1484 0142367  51.5803   7.6121 13.86731364953276"
      },
      "geometry": {
        "type": "Point",
        "coordinates": [
          78.7418783204535,
          -13.76145311311613
        ]
      }
    },
    {
      "type": "Feature",
      "properties": {
        "norad_id": 30330,
        "name": "FENGYUN 1C DEB",
        "group": "fengyun-1c-debris",
        "lat": -42.88970954384905,
        "lon": -17.38833362618884,
        "alt_km": 1025.6110736896535,
        "timestamp": "2025-12-07T14:37:05.480295+00:00",
        "meta_object_name": "FENGYUN 1C DEB",
        "meta_object_id": "1999-025AAR",
        "meta_epoch": "2025-12-06T23:28:43.978656",
        "meta_mean_motion": 13.82034736,
        "meta_eccentricity": 0.01875887,
        "meta_inclination": 98.8853,
        "meta_ra_of_asc_node": 333.6616,
        "meta_arg_of_pericenter": 200.336,
        "meta_mean_anomaly": 217.5381,
        "meta_ephemeris_type": 0,
        "meta_classification_type": "U",
        "meta_norad_cat_id": 30330,
        "meta_element_set_no": 999,
        "meta_rev_at_epoch": 94578,
        "meta_bstar": 0.0019264982,
        "meta_mean_motion_dot": 2.327e-05,
        "meta_mean_motion_ddot": 0,
        "tle_line1": "1 30330U 99025AAR 25340.97828679  .00002327  00000+0  19265-2 0  9992",
        "tle_line2": "2 30330  98.8853 333.6616 0187588 200.3360 217.5381 13.82034736945788"
      },
      "geometry": {
        "type": "Point",
        "coordinates": [
          -17.38833362618884,
          -42.88970954384905
        ]
      }
    },
    {
      "type": "Feature",
      "properties": {
        "norad_id": 30331,
        "name": "FENGYUN 1C DEB",
        "group": "fengyun-1c-debris",
        "lat": -70.20589640339075,
        "lon": 170.3198103742934,
        "alt_km": 953.3791798195452,
        "timestamp": "2025-12-07T14:37:05.480306+00:00",
        "meta_object_name": "FENGYUN 1C DEB",
        "meta_object_id": "1999-025AAS",
        "meta_epoch": "2025-12-06T22:31:09.055200",
        "meta_mean_motion": 13.97820251,
        "meta_eccentricity": 0.009678,
        "meta_inclination": 98.9575,
        "meta_ra_of_asc_node": 15.6566,
        "meta_arg_of_pericenter": 23.9779,
        "meta_mean_anomaly": 95.4367,
        "meta_ephemeris_type": 0,
        "meta_classification_type": "U",
        "meta_norad_cat_id": 30331,
        "meta_element_set_no": 999,
        "meta_rev_at_epoch": 96038,
        "meta_bstar": 0.00063112549,
        "meta_mean_motion_dot": 8.86e-06,
        "meta_mean_motion_ddot": 0,
        "tle_line1": "1 30331U 99025AAS 25340.93829925  .00000886  00000+0  63113-3 0  9994",
        "tle_line2": "2 30331  98.9575  15.6566 0096780  23.9779  95.4367 13.97820251960389"
      },
      "geometry": {
        "type": "Point",
        "coordinates": [
          170.3198103742934,
          -70.20589640339075
        ]
      }
    },
    {
      "type": "Feature",
      "properties": {
        "norad_id": 30332,
        "name": "FENGYUN 1C DEB",
        "group": "fengyun-1c-debris",
        "lat": -54.67630328149667,
        "lon": -32.9887904139216,
        "alt_km": 1112.164635721152,
        "timestamp": "2025-12-07T14:37:05.480316+00:00",
        "meta_object_name": "FENGYUN 1C DEB",
        "meta_object_id": "1999-025AAT",
        "meta_epoch": "2025-12-06T21:43:18.942240",
        "meta_mean_motion": 13.76702054,
        "meta_eccentricity": 0.01779971,
        "meta_inclination": 99.7143,
        "meta_ra_of_asc_node": 312.3047,
        "meta_arg_of_pericenter": 118.0923,
        "meta_mean_anomaly": 299.0508,
        "meta_ephemeris_type": 0,
        "meta_classification_type": "U",
        "meta_norad_cat_id": 30332,
        "meta_element_set_no": 999,
        "meta_rev_at_epoch": 94635,
        "meta_bstar": 0.00055616709,
        "meta_mean_motion_dot": 5.68e-06,
        "meta_mean_motion_ddot": 0,
        "tle_line1": "1 30332U 99025AAT 25340.90508035  .00000568  00000+0  55617-3 0  9995",
        "tle_line2": "2 30332  99.7143 312.3047 0177997 118.0923 299.0508 13.76702054946355"
      },
      "geometry": {
        "type": "Point",
        "coordinates": [
          -32.9887904139216,
          -54.67630328149667
        ]
      }
    }
  ]
}